IRIDIUM 33              
1 24946U 97051C   24153.43918564  .00000459  00000+0  15619-3 0  9994
2 24946  86.3847 302.7611 0006150 231.7090 128.3553 14.34372576398163
IRIDIUM 33 DEB          
1 33773U 97051L   24153.43528185  .00001566  00000+0  48252-3 0  9997
2 33773  86.3994 297.0573 0010752 191.5542 168.5413 14.40855161802912
IRIDIUM 33 DEB          
1 33775U 97051N   24153.45767994  .00002370  00000+0  76975-3 0  9991
2 33775  86.3628 287.6234 0014410 201.8989 228.3802 14.38446368801011
IRIDIUM 33 DEB          
1 33776U 97051P   24152.98292741  .00001245  00000+0  41967-3 0  9995
2 33776  86.4028 315.3929 0013030 227.5960 254.1046 14.36240580800504
IRIDIUM 33 DEB          
1 33777U 97051Q   24152.87496214  .00003134  00000+0  83592-3 0  9994
2 33777  86.3797 277.2063 0009646   0.2554 359.8652 14.48158913804168
IRIDIUM 33 DEB          
1 33850U 97051T   24152.88857786  .00002832  00000+0  91137-3 0  9990
2 33850  86.3411 270.2226 0011388 207.7747 277.1943 14.38984441800917
IRIDIUM 33 DEB          
1 33853U 97051W   24152.75090038  .00002767  00000+0  16620-2 0  9998
2 33853  86.0016 234.4180 0225731 149.6144 340.8659 13.94676381775266
IRIDIUM 33 DEB          
1 33859U 97051AC  24153.28316971  .00017028  00000+0  34331-2 0  9995
2 33859  86.3343 259.8416 0042939 152.0798 208.2730 14.60802487802373
IRIDIUM 33 DEB          
1 33860U 97051AD  24153.36835330  .00006398  00000+0  15034-2 0  9998
2 33860  86.3870 272.1786 0013433  81.2291 338.2844 14.54253157805657
IRIDIUM 33 DEB          
1 33862U 97051AF  24153.43053404  .00004881  00000+0  10675-2 0  9993
2 33862  86.4098 281.5249 0060170 178.3157 249.1752 14.56444946806467
IRIDIUM 33 DEB          
1 33864U 97051AH  24152.56301420  .00009866  00000+0  15666-2 0  9995
2 33864  86.2738 181.9798 0004922 296.9754 189.4151 14.72026087807575
IRIDIUM 33 DEB          
1 33866U 97051AK  24152.76705404  .00004429  00000+0  19376-2 0  9991
2 33866  86.3024 328.9186 0112962 150.9394 336.4857 14.20213127788473
IRIDIUM 33 DEB          
1 33867U 97051AL  24153.23553497  .00019260  00000+0  28300-2 0  9994
2 33867  86.4151 250.5103 0019160 227.0272 132.9341 14.75259270811284
IRIDIUM 33 DEB          
1 33870U 97051AP  24152.86417247  .00003494  00000+0  10926-2 0  9995
2 33870  86.3746 297.1373 0020444 233.1388 246.6739 14.40388182800601
IRIDIUM 33 DEB          
1 33873U 97051AS  24153.17663177  .00122318  00000+0  68761-2 0  9995
2 33873  86.3495 217.3523 0018932 174.2750 185.8710 15.12587552811307
IRIDIUM 33 DEB          
1 33874U 97051AT  24152.83857628  .00016693  00000+0  37735-2 0  9999
2 33874  86.2794 261.5946 0038105  63.8248  61.3341 14.55681140797314
IRIDIUM 33 DEB          
1 33881U 97051BA  24153.55244406  .00006358  00000+0  19725-2 0  9997
2 33881  86.3924 346.3951 0059920 229.9889 184.1045 14.39962478794129
IRIDIUM 33 DEB          
1 33884U 97051BD  24153.22731324  .00009189  00000+0  19244-2 0  9995
2 33884  86.3772 258.9974 0015036  94.9161 277.4333 14.59589965806419
IRIDIUM 33 DEB          
1 33886U 97051BF  24152.94108750  .00000810  00000+0  27884-3 0  9998
2 33886  86.3810 302.5148 0012142 277.8290 195.9086 14.34761442800219
IRIDIUM 33 DEB          
1 33887U 97051BG  24152.75350799  .00000763  00000+0  25514-3 0  9995
2 33887  86.3064 244.3518 0004314 274.1597 208.8310 14.36167650801248
IRIDIUM 33 DEB          
1 33888U 97051BH  24153.21426654  .00080880  00000+0  78880-2 0  9993
2 33888  86.3063 248.3189 0019425 143.3748 216.8812 14.91911527802507
IRIDIUM 33 DEB          
1 33952U 97051BM  24153.18643622  .00120344  00000+0  60328-2 0  9995
2 33952  86.3286 210.2816 0010339 169.5054 190.6405 15.16775070810747
IRIDIUM 33 DEB          
1 33953U 97051BN  24152.89315479  .00006036  00000+0  16734-2 0  9992
2 33953  86.3879 294.9104 0022341 164.0099 319.6106 14.46310716801835
IRIDIUM 33 DEB          
1 33959U 97051BU  24152.93074079  .00005940  00000+0  11066-2 0  9997
2 33959  86.3628 302.0804 0053352 336.8686  23.0124 14.63986365797915
IRIDIUM 33 DEB          
1 33960U 97051BV  24152.63458326  .00006622  00000+0  13760-2 0  9998
2 33960  86.2715 187.8679 0003081 141.6361 346.8610 14.59991483806366
IRIDIUM 33 DEB          
1 33965U 97051CA  24153.20251633  .00026947  00000+0  35047-2 0  9993
2 33965  86.3555 239.9058 0011806 198.3796 161.7000 14.80493776808106
IRIDIUM 33 DEB          
1 33966U 97051CB  24152.88014639  .00002836  00000+0  80614-3 0  9992
2 33966  86.3918 285.3631 0005736 272.1931 212.4842 14.45089236803420
IRIDIUM 33 DEB          
1 34071U 97051CE  24152.83846726  .00003132  00000+0  90333-3 0  9994
2 34071  86.3463 260.1446 0008760 161.5426 198.6095 14.44404903802366
IRIDIUM 33 DEB          
1 34077U 97051CL  24152.88063755  .00007325  00000+0  18634-2 0  9999
2 34077  86.3895 295.2036 0014630 115.4618   5.4075 14.50523069801745
IRIDIUM 33 DEB          
1 34079U 97051CN  24153.28991115  .00010584  00000+0  21301-2 0  9992
2 34079  86.3827 258.7177 0010423 110.2442 308.2985 14.61449874807479
IRIDIUM 33 DEB          
1 34086U 97051CV  24153.11485304  .00022844  00000+0  38474-2 0  9991
2 34086  86.3715 282.3553 0015445 131.9307  41.0595 14.69353338803509
IRIDIUM 33 DEB          
1 34088U 97051CX  24153.42836035  .00011281  00000+0  23221-2 0  9995
2 34088  86.3937 280.8657 0009005  28.8237  37.4121 14.60436115805216
IRIDIUM 33 DEB          
1 34091U 97051DA  24153.48780356  .00008765  00000+0  23546-2 0  9992
2 34091  86.3633 314.7670 0065573  67.2568 293.5546 14.46709252797069
IRIDIUM 33 DEB          
1 34097U 97051DG  24153.25243748  .00002664  00000+0  10433-2 0  9995
2 34097  86.2039 246.7913 0089205  14.8573 345.5207 14.26986795791793
IRIDIUM 33 DEB          
1 34102U 97051DM  24152.55885032  .00018359  00000+0  39872-2 0  9998
2 34102  86.3676 351.0704 0068579 274.6270 138.5172 14.56509019792523
IRIDIUM 33 DEB          
1 34106U 97051DR  24153.25344289  .00018330  00000+0  27215-2 0  9991
2 34106  86.3547 232.3438 0010093  69.8733 354.2517 14.74907400808372
IRIDIUM 33 DEB          
1 34107U 97051DS  24153.20907774  .00022908  00000+0  26636-2 0  9993
2 34107  86.3718 240.0851 0009269  98.8823 321.1511 14.85190290809273
IRIDIUM 33 DEB          
1 34145U 97051DY  24153.21442558  .00003672  00000+0  12501-2 0  9993
2 34145  86.2182 220.2470 0062170 128.4064 232.2738 14.35204228795991
IRIDIUM 33 DEB          
1 34146U 97051DZ  24152.76194071  .00003875  00000+0  11645-2 0  9990
2 34146  86.2875 235.7695 0029994 282.2174 207.0683 14.42224615800142
IRIDIUM 33 DEB          
1 34159U 97051EN  24152.86376434  .00001534  00000+0  52249-3 0  9996
2 34159  86.3497 286.3427 0027985 324.9290  35.0063 14.35719203799178
IRIDIUM 33 DEB          
1 34350U 97051ES  24153.24565222  .00001554  00000+0  46162-3 0  9996
2 34350  86.3301 244.9176 0021917 187.2389 230.1915 14.42540299802190
IRIDIUM 33 DEB          
1 34358U 97051FA  24153.17661181  .00049552  00000+0  49082-2 0  9990
2 34358  86.3149 212.5951 0022735 200.8258 213.2770 14.91406741807290
IRIDIUM 33 DEB          
1 34366U 97051FJ  24152.86092222  .00005891  00000+0  16895-2 0  9992
2 34366  86.3702 291.0072 0022013 208.5541 304.8681 14.44676121800693
IRIDIUM 33 DEB          
1 34375U 97051FT  24153.18492139  .00001230  00000+0  58251-3 0  9995
2 34375  86.4324  48.0406 0107378 102.4014  49.8767 14.15844554788859
IRIDIUM 33 DEB          
1 34376U 97051FU  24153.05099777  .00008471  00000+0  22881-2 0  9996
2 34376  86.3029 255.0092 0032212 259.7812  99.9758 14.47429614800276
IRIDIUM 33 DEB          
1 34486U 97051GB  24153.07429605  .00012272  00000+0  22225-2 0  9993
2 34486  86.4037 263.7595 0013746 285.3023 197.5045 14.66181346807765
IRIDIUM 33 DEB          
1 34487U 97051GC  24151.25408840  .00001260  00000+0  37911-3 0  9994
2 34487  86.3446 253.6802 0031731 182.0550 207.4954 14.41589173801543
IRIDIUM 33 DEB          
1 34488U 97051GD  24153.15144839  .00013617  00000+0  21191-2 0  9992
2 34488  86.3435 208.0156 0018804 203.2462 156.7907 14.72797351809895
IRIDIUM 33 DEB          
1 34489U 97051GE  24152.91253214  .01019028  00000+0  19471-1 0  9994
2 34489  86.3643 322.5223 0028492 260.9721  98.8311 15.45041707798896
IRIDIUM 33 DEB          
1 34492U 97051GH  24150.09254448  .00008228  00000+0  38995-2 0  9997
2 34492  86.4930 197.7224 0256540 224.6606 163.4763 14.03685177771001
IRIDIUM 33 DEB          
1 34497U 97051GN  24151.36912130  .00002130  00000+0  89162-3 0  9991
2 34497  86.2763 291.4196 0084526 343.9805  44.2025 14.23746479790178
IRIDIUM 33 DEB          
1 34503U 97051GU  24153.53470703  .00031192  00000+0  35202-2 0  9990
2 34503  86.3087 174.2729 0009545  18.0255 342.1306 14.86378141810949
IRIDIUM 33 DEB          
1 34508U 97051GZ  24153.47979933  .00004332  00000+0  15878-2 0  9990
2 34508  86.3745 338.3282 0071090 198.2025 161.6624 14.31244235792876
IRIDIUM 33 DEB          
1 34511U 97051HC  24152.82224081  .00060629  00000+0  63661-2 0  9993
2 34511  86.3678 266.8667 0019903 275.2434 208.3117 14.89049929804597
IRIDIUM 33 DEB          
1 34521U 97051HN  24152.82142114  .00006101  00000+0  14990-2 0  9996
2 34521  86.3818 274.8452 0004943  17.6696 342.4681 14.52201360803124
IRIDIUM 33 DEB          
1 34524U 97051HR  24152.97295520  .00114255  00000+0  74964-2 0  9992
2 34524  86.3241 230.0107 0020139 249.7063 110.2009 15.06968937805935
IRIDIUM 33 DEB          
1 34525U 97051HS  24153.13424976  .00001839  00000+0  57813-3 0  9999
2 34525  86.3719 285.0645 0006311 123.8951 359.3619 14.39998208800798
IRIDIUM 33 DEB          
1 34529U 97051HW  24152.37938873  .00001314  00000+0  41630-3 0  9992
2 34529  86.3632 273.9337 0004095 230.1316 129.9523 14.39384376800772
IRIDIUM 33 DEB          
1 34538U 97051JF  24153.04171170  .00003782  00000+0  12675-2 0  9993
2 34538  86.2773 249.5244 0038847   4.5961  49.3787 14.36670693797874
IRIDIUM 33 DEB          
1 34540U 97051JH  24153.11768372  .00005341  00000+0  10810-2 0  9992
2 34540  86.3236 200.2385 0019608 303.9205 114.7706 14.61047712808489
